[
  {
    "id": 1,
    "iso2": "AF",
    "phone_code": "93",
    "translations": {
      "pt": "Afeganistão",
      "de": "Afghanistan",
      "es": "Afganistán",
      "fr": "Afghanistan",
      "en": "Afghanistan"
    }
  },
  {
    "id": 2,
    "iso2": "AX",
    "phone_code": "358",
    "translations": {
      "pt": "Ilhas de Aland",
      "de": "Åland",
      "es": "Alandia",
      "fr": "Åland",
      "en": "Aland Islands"
    }
  },
  {
    "id": 3,
    "iso2": "AL",
    "phone_code": "355",
    "translations": {
      "pt": "Albânia",
      "de": "Albanien",
      "es": "Albania",
      "fr": "Albanie",
      "en": "Albania"
    }
  },
  {
    "id": 4,
    "iso2": "DZ",
    "phone_code": "213",
    "translations": {
      "pt": "Argélia",
      "de": "Algerien",
      "es": "Argelia",
      "fr": "Algérie",
      "en": "Algeria"
    }
  },
  {
    "id": 5,
    "iso2": "AS",
    "phone_code": "1",
    "translations": {
      "pt": "Samoa Americana",
      "de": "Amerikanisch-Samoa",
      "es": "Samoa Americana",
      "fr": "Samoa américaines",
      "en": "American Samoa"
    }
  },
  {
    "id": 6,
    "iso2": "AD",
    "phone_code": "376",
    "translations": {
      "pt": "Andorra",
      "de": "Andorra",
      "es": "Andorra",
      "fr": "Andorre",
      "en": "Andorra"
    }
  },
  {
    "id": 7,
    "iso2": "AO",
    "phone_code": "244",
    "translations": {
      "pt": "Angola",
      "de": "Angola",
      "es": "Angola",
      "fr": "Angola",
      "en": "Angola"
    }
  },
  {
    "id": 8,
    "iso2": "AI",
    "phone_code": "1",
    "translations": {
      "pt": "Anguila",
      "de": "Anguilla",
      "es": "Anguilla",
      "fr": "Anguilla",
      "en": "Anguilla"
    }
  },
  {
    "id": 9,
    "iso2": "AQ",
    "phone_code": "672",
    "translations": {
      "pt": "Antárctida",
      "de": "Antarktika",
      "es": "Antártida",
      "fr": "Antarctique",
      "en": "Antarctica"
    }
  },
  {
    "id": 10,
    "iso2": "AG",
    "phone_code": "1",
    "translations": {
      "pt": "Antígua e Barbuda",
      "de": "Antigua und Barbuda",
      "es": "Antigua y Barbuda",
      "fr": "Antigua-et-Barbuda",
      "en": "Antigua And Barbuda"
    }
  },
  {
    "id": 11,
    "iso2": "AR",
    "phone_code": "54",
    "translations": {
      "pt": "Argentina",
      "de": "Argentinien",
      "es": "Argentina",
      "fr": "Argentine",
      "en": "Argentina"
    }
  },
  {
    "id": 12,
    "iso2": "AM",
    "phone_code": "374",
    "translations": {
      "pt": "Arménia",
      "de": "Armenien",
      "es": "Armenia",
      "fr": "Arménie",
      "en": "Armenia"
    }
  },
  {
    "id": 13,
    "iso2": "AW",
    "phone_code": "297",
    "translations": {
      "pt": "Aruba",
      "de": "Aruba",
      "es": "Aruba",
      "fr": "Aruba",
      "en": "Aruba"
    }
  },
  {
    "id": 14,
    "iso2": "AU",
    "phone_code": "61",
    "translations": {
      "pt": "Austrália",
      "de": "Australien",
      "es": "Australia",
      "fr": "Australie",
      "en": "Australia"
    }
  },
  {
    "id": 15,
    "iso2": "AT",
    "phone_code": "43",
    "translations": {
      "pt": "áustria",
      "de": "Österreich",
      "es": "Austria",
      "fr": "Autriche",
      "en": "Austria"
    }
  },
  {
    "id": 16,
    "iso2": "AZ",
    "phone_code": "994",
    "translations": {
      "pt": "Azerbaijão",
      "de": "Aserbaidschan",
      "es": "Azerbaiyán",
      "fr": "Azerbaïdjan",
      "en": "Azerbaijan"
    }
  },
  {
    "id": 18,
    "iso2": "BH",
    "phone_code": "973",
    "translations": {
      "pt": "Barém",
      "de": "Bahrain",
      "es": "Bahrein",
      "fr": "Bahreïn",
      "en": "Bahrain"
    }
  },
  {
    "id": 19,
    "iso2": "BD",
    "phone_code": "880",
    "translations": {
      "pt": "Bangladeche",
      "de": "Bangladesch",
      "es": "Bangladesh",
      "fr": "Bangladesh",
      "en": "Bangladesh"
    }
  },
  {
    "id": 20,
    "iso2": "BB",
    "phone_code": "1",
    "translations": {
      "pt": "Barbados",
      "de": "Barbados",
      "es": "Barbados",
      "fr": "Barbade",
      "en": "Barbados"
    }
  },
  {
    "id": 21,
    "iso2": "BY",
    "phone_code": "375",
    "translations": {
      "pt": "Bielorrússia",
      "de": "Weißrussland",
      "es": "Bielorrusia",
      "fr": "Biélorussie",
      "en": "Belarus"
    }
  },
  {
    "id": 22,
    "iso2": "BE",
    "phone_code": "32",
    "translations": {
      "pt": "Bélgica",
      "de": "Belgien",
      "es": "Bélgica",
      "fr": "Belgique",
      "en": "Belgium"
    }
  },
  {
    "id": 23,
    "iso2": "BZ",
    "phone_code": "501",
    "translations": {
      "pt": "Belize",
      "de": "Belize",
      "es": "Belice",
      "fr": "Belize",
      "en": "Belize"
    }
  },
  {
    "id": 24,
    "iso2": "BJ",
    "phone_code": "229",
    "translations": {
      "pt": "Benim",
      "de": "Benin",
      "es": "Benín",
      "fr": "Bénin",
      "en": "Benin"
    }
  },
  {
    "id": 25,
    "iso2": "BM",
    "phone_code": "1",
    "translations": {
      "pt": "Bermudas",
      "de": "Bermuda",
      "es": "Bermudas",
      "fr": "Bermudes",
      "en": "Bermuda"
    }
  },
  {
    "id": 26,
    "iso2": "BT",
    "phone_code": "975",
    "translations": {
      "pt": "Butão",
      "de": "Bhutan",
      "es": "Bután",
      "fr": "Bhoutan",
      "en": "Bhutan"
    }
  },
  {
    "id": 27,
    "iso2": "BO",
    "phone_code": "591",
    "translations": {
      "pt": "Bolívia",
      "de": "Bolivien",
      "es": "Bolivia",
      "fr": "Bolivie",
      "en": "Bolivia"
    }
  },
  {
    "id": 155,
    "iso2": "BQ",
    "phone_code": "599",
    "translations": {
      "pt": "Bonaire",
      "de": "Bonaire, Sint Eustatius und Saba",
      "fr": "Bonaire, Saint-Eustache et Saba",
      "en": "Bonaire, Sint Eustatius and Saba"
    }
  },
  {
    "id": 28,
    "iso2": "BA",
    "phone_code": "387",
    "translations": {
      "pt": "Bósnia e Herzegovina",
      "de": "Bosnien und Herzegowina",
      "es": "Bosnia y Herzegovina",
      "fr": "Bosnie-Herzégovine",
      "en": "Bosnia and Herzegovina"
    }
  },
  {
    "id": 29,
    "iso2": "BW",
    "phone_code": "267",
    "translations": {
      "pt": "Botsuana",
      "de": "Botswana",
      "es": "Botswana",
      "fr": "Botswana",
      "en": "Botswana"
    }
  },
  {
    "id": 30,
    "iso2": "BV",
    "phone_code": "0055",
    "translations": {
      "pt": "Ilha Bouvet",
      "de": "Bouvetinsel",
      "es": "Isla Bouvet",
      "fr": "Île Bouvet",
      "en": "Bouvet Island"
    }
  },
  {
    "id": 31,
    "iso2": "BR",
    "phone_code": "55",
    "translations": {
      "pt": "Brasil",
      "de": "Brasilien",
      "es": "Brasil",
      "fr": "Brésil",
      "en": "Brazil"
    }
  },
  {
    "id": 32,
    "iso2": "IO",
    "phone_code": "246",
    "translations": {
      "pt": "Território Britânico do Oceano Índico",
      "de": "Britisches Territorium im Indischen Ozean",
      "es": "Territorio Británico del Océano Índico",
      "fr": "Territoire britannique de l'océan Indien",
      "en": "British Indian Ocean Territory"
    }
  },
  {
    "id": 33,
    "iso2": "BN",
    "phone_code": "673",
    "translations": {
      "pt": "Brunei",
      "de": "Brunei",
      "es": "Brunei",
      "fr": "Brunei",
      "en": "Brunei"
    }
  },
  {
    "id": 34,
    "iso2": "BG",
    "phone_code": "359",
    "translations": {
      "pt": "Bulgária",
      "de": "Bulgarien",
      "es": "Bulgaria",
      "fr": "Bulgarie",
      "en": "Bulgaria"
    }
  },
  {
    "id": 35,
    "iso2": "BF",
    "phone_code": "226",
    "translations": {
      "pt": "Burquina Faso",
      "de": "Burkina Faso",
      "es": "Burkina Faso",
      "fr": "Burkina Faso",
      "en": "Burkina Faso"
    }
  },
  {
    "id": 36,
    "iso2": "BI",
    "phone_code": "257",
    "translations": {
      "pt": "Burúndi",
      "de": "Burundi",
      "es": "Burundi",
      "fr": "Burundi",
      "en": "Burundi"
    }
  },
  {
    "id": 37,
    "iso2": "KH",
    "phone_code": "855",
    "translations": {
      "pt": "Camboja",
      "de": "Kambodscha",
      "es": "Camboya",
      "fr": "Cambodge",
      "en": "Cambodia"
    }
  },
  {
    "id": 38,
    "iso2": "CM",
    "phone_code": "237",
    "translations": {
      "pt": "Camarões",
      "de": "Kamerun",
      "es": "Camerún",
      "fr": "Cameroun",
      "en": "Cameroon"
    }
  },
  {
    "id": 39,
    "iso2": "CA",
    "phone_code": "1",
    "translations": {
      "pt": "Canadá",
      "de": "Kanada",
      "es": "Canadá",
      "fr": "Canada",
      "en": "Canada"
    }
  },
  {
    "id": 40,
    "iso2": "CV",
    "phone_code": "238",
    "translations": {
      "pt": "Cabo Verde",
      "de": "Kap Verde",
      "es": "Cabo Verde",
      "fr": "Cap Vert",
      "en": "Cape Verde"
    }
  },
  {
    "id": 41,
    "iso2": "KY",
    "phone_code": "1",
    "translations": {
      "pt": "Ilhas Caimão",
      "de": "Kaimaninseln",
      "es": "Islas Caimán",
      "fr": "Îles Caïmans",
      "en": "Cayman Islands"
    }
  },
  {
    "id": 42,
    "iso2": "CF",
    "phone_code": "236",
    "translations": {
      "pt": "República Centro-Africana",
      "de": "Zentralafrikanische Republik",
      "es": "República Centroafricana",
      "fr": "République centrafricaine",
      "en": "Central African Republic"
    }
  },
  {
    "id": 43,
    "iso2": "TD",
    "phone_code": "235",
    "translations": {
      "pt": "Chade",
      "de": "Tschad",
      "es": "Chad",
      "fr": "Tchad",
      "en": "Chad"
    }
  },
  {
    "id": 44,
    "iso2": "CL",
    "phone_code": "56",
    "translations": {
      "pt": "Chile",
      "de": "Chile",
      "es": "Chile",
      "fr": "Chili",
      "en": "Chile"
    }
  },
  {
    "id": 45,
    "iso2": "CN",
    "phone_code": "86",
    "translations": {
      "pt": "China",
      "de": "China",
      "es": "China",
      "fr": "Chine",
      "en": "China"
    }
  },
  {
    "id": 46,
    "iso2": "CX",
    "phone_code": "61",
    "translations": {
      "pt": "Ilha do Natal",
      "de": "Weihnachtsinsel",
      "es": "Isla de Navidad",
      "fr": "Île Christmas",
      "en": "Christmas Island"
    }
  },
  {
    "id": 47,
    "iso2": "CC",
    "phone_code": "61",
    "translations": {
      "pt": "Ilhas dos Cocos",
      "de": "Kokosinseln",
      "es": "Islas Cocos o Islas Keeling",
      "fr": "Îles Cocos",
      "en": "Cocos (Keeling) Islands"
    }
  },
  {
    "id": 48,
    "iso2": "CO",
    "phone_code": "57",
    "translations": {
      "pt": "Colômbia",
      "de": "Kolumbien",
      "es": "Colombia",
      "fr": "Colombie",
      "en": "Colombia"
    }
  },
  {
    "id": 49,
    "iso2": "KM",
    "phone_code": "269",
    "translations": {
      "pt": "Comores",
      "de": "Union der Komoren",
      "es": "Comoras",
      "fr": "Comores",
      "en": "Comoros"
    }
  },
  {
    "id": 50,
    "iso2": "CG",
    "phone_code": "242",
    "translations": {
      "pt": "Congo",
      "de": "Kongo",
      "es": "Congo",
      "fr": "Congo",
      "en": "Congo"
    }
  },
  {
    "id": 52,
    "iso2": "CK",
    "phone_code": "682",
    "translations": {
      "pt": "Ilhas Cook",
      "de": "Cookinseln",
      "es": "Islas Cook",
      "fr": "Îles Cook",
      "en": "Cook Islands"
    }
  },
  {
    "id": 53,
    "iso2": "CR",
    "phone_code": "506",
    "translations": {
      "pt": "Costa Rica",
      "de": "Costa Rica",
      "es": "Costa Rica",
      "fr": "Costa Rica",
      "en": "Costa Rica"
    }
  },
  {
    "id": 54,
    "iso2": "CI",
    "phone_code": "225",
    "translations": {
      "pt": "Costa do Marfim",
      "de": "Elfenbeinküste",
      "es": "Costa de Marfil",
      "fr": "Côte d'Ivoire",
      "en": "Cote D'Ivoire (Ivory Coast)"
    }
  },
  {
    "id": 55,
    "iso2": "HR",
    "phone_code": "385",
    "translations": {
      "pt": "Croácia",
      "de": "Kroatien",
      "es": "Croacia",
      "fr": "Croatie",
      "en": "Croatia"
    }
  },
  {
    "id": 56,
    "iso2": "CU",
    "phone_code": "53",
    "translations": {
      "pt": "Cuba",
      "de": "Kuba",
      "es": "Cuba",
      "fr": "Cuba",
      "en": "Cuba"
    }
  },
  {
    "id": 249,
    "iso2": "CW",
    "phone_code": "599",
    "translations": {
      "pt": "Curaçao",
      "de": "Curaçao",
      "fr": "Curaçao",
      "en": "Curaçao"
    }
  },
  {
    "id": 57,
    "iso2": "CY",
    "phone_code": "357",
    "translations": {
      "pt": "Chipre",
      "de": "Zypern",
      "es": "Chipre",
      "fr": "Chypre",
      "en": "Cyprus"
    }
  },
  {
    "id": 58,
    "iso2": "CZ",
    "phone_code": "420",
    "translations": {
      "pt": "República Checa",
      "de": "Tschechische Republik",
      "es": "República Checa",
      "fr": "République tchèque",
      "en": "Czech Republic"
    }
  },
  {
    "id": 51,
    "iso2": "CD",
    "phone_code": "243",
    "translations": {
      "pt": "RD Congo",
      "de": "Kongo (Dem. Rep.)",
      "es": "Congo (Rep. Dem.)",
      "fr": "Congo (Rép. dém.)",
      "en": "Democratic Republic of the Congo"
    }
  },
  {
    "id": 59,
    "iso2": "DK",
    "phone_code": "45",
    "translations": {
      "pt": "Dinamarca",
      "de": "Dänemark",
      "es": "Dinamarca",
      "fr": "Danemark",
      "en": "Denmark"
    }
  },
  {
    "id": 60,
    "iso2": "DJ",
    "phone_code": "253",
    "translations": {
      "pt": "Djibuti",
      "de": "Dschibuti",
      "es": "Yibuti",
      "fr": "Djibouti",
      "en": "Djibouti"
    }
  },
  {
    "id": 61,
    "iso2": "DM",
    "phone_code": "1",
    "translations": {
      "pt": "Dominica",
      "de": "Dominica",
      "es": "Dominica",
      "fr": "Dominique",
      "en": "Dominica"
    }
  },
  {
    "id": 62,
    "iso2": "DO",
    "phone_code": "1",
    "translations": {
      "pt": "República Dominicana",
      "de": "Dominikanische Republik",
      "es": "República Dominicana",
      "fr": "République dominicaine",
      "en": "Dominican Republic"
    }
  },
  {
    "id": 63,
    "iso2": "TL",
    "phone_code": "670",
    "translations": {
      "pt": "Timor Leste",
      "de": "Timor-Leste",
      "es": "Timor Oriental",
      "fr": "Timor oriental",
      "en": "East Timor"
    }
  },
  {
    "id": 64,
    "iso2": "EC",
    "phone_code": "593",
    "translations": {
      "pt": "Equador",
      "de": "Ecuador",
      "es": "Ecuador",
      "fr": "Équateur",
      "en": "Ecuador"
    }
  },
  {
    "id": 65,
    "iso2": "EG",
    "phone_code": "20",
    "translations": {
      "pt": "Egipto",
      "de": "Ägypten",
      "es": "Egipto",
      "fr": "Égypte",
      "en": "Egypt"
    }
  },
  {
    "id": 66,
    "iso2": "SV",
    "phone_code": "503",
    "translations": {
      "pt": "El Salvador",
      "de": "El Salvador",
      "es": "El Salvador",
      "fr": "Salvador",
      "en": "El Salvador"
    }
  },
  {
    "id": 67,
    "iso2": "GQ",
    "phone_code": "240",
    "translations": {
      "pt": "Guiné Equatorial",
      "de": "Äquatorial-Guinea",
      "es": "Guinea Ecuatorial",
      "fr": "Guinée-Équatoriale",
      "en": "Equatorial Guinea"
    }
  },
  {
    "id": 68,
    "iso2": "ER",
    "phone_code": "291",
    "translations": {
      "pt": "Eritreia",
      "de": "Eritrea",
      "es": "Eritrea",
      "fr": "Érythrée",
      "en": "Eritrea"
    }
  },
  {
    "id": 69,
    "iso2": "EE",
    "phone_code": "372",
    "translations": {
      "pt": "Estónia",
      "de": "Estland",
      "es": "Estonia",
      "fr": "Estonie",
      "en": "Estonia"
    }
  },
  {
    "id": 70,
    "iso2": "ET",
    "phone_code": "251",
    "translations": {
      "pt": "Etiópia",
      "de": "Äthiopien",
      "es": "Etiopía",
      "fr": "Éthiopie",
      "en": "Ethiopia"
    }
  },
  {
    "id": 71,
    "iso2": "FK",
    "phone_code": "500",
    "translations": {
      "pt": "Ilhas Falkland",
      "de": "Falklandinseln",
      "es": "Islas Malvinas",
      "fr": "Îles Malouines",
      "en": "Falkland Islands"
    }
  },
  {
    "id": 72,
    "iso2": "FO",
    "phone_code": "298",
    "translations": {
      "pt": "Ilhas Faroé",
      "de": "Färöer-Inseln",
      "es": "Islas Faroe",
      "fr": "Îles Féroé",
      "en": "Faroe Islands"
    }
  },
  {
    "id": 73,
    "iso2": "FJ",
    "phone_code": "679",
    "translations": {
      "pt": "Fiji",
      "de": "Fidschi",
      "es": "Fiyi",
      "fr": "Fidji",
      "en": "Fiji Islands"
    }
  },
  {
    "id": 74,
    "iso2": "FI",
    "phone_code": "358",
    "translations": {
      "pt": "Finlândia",
      "de": "Finnland",
      "es": "Finlandia",
      "fr": "Finlande",
      "en": "Finland"
    }
  },
  {
    "id": 75,
    "iso2": "FR",
    "phone_code": "33",
    "translations": {
      "pt": "França",
      "de": "Frankreich",
      "es": "Francia",
      "fr": "France",
      "en": "France"
    }
  },
  {
    "id": 76,
    "iso2": "GF",
    "phone_code": "594",
    "translations": {
      "pt": "Guiana Francesa",
      "de": "Französisch Guyana",
      "es": "Guayana Francesa",
      "fr": "Guayane",
      "en": "French Guiana"
    }
  },
  {
    "id": 77,
    "iso2": "PF",
    "phone_code": "689",
    "translations": {
      "pt": "Polinésia Francesa",
      "de": "Französisch-Polynesien",
      "es": "Polinesia Francesa",
      "fr": "Polynésie française",
      "en": "French Polynesia"
    }
  },
  {
    "id": 78,
    "iso2": "TF",
    "phone_code": "262",
    "translations": {
      "pt": "Terras Austrais e Antárticas Francesas",
      "de": "Französische Süd- und Antarktisgebiete",
      "es": "Tierras Australes y Antárticas Francesas",
      "fr": "Terres australes et antarctiques françaises",
      "en": "French Southern Territories"
    }
  },
  {
    "id": 79,
    "iso2": "GA",
    "phone_code": "241",
    "translations": {
      "pt": "Gabão",
      "de": "Gabun",
      "es": "Gabón",
      "fr": "Gabon",
      "en": "Gabon"
    }
  },
  {
    "id": 80,
    "iso2": "GM",
    "phone_code": "220",
    "translations": {
      "pt": "Gâmbia",
      "de": "Gambia",
      "es": "Gambia",
      "fr": "Gambie",
      "en": "Gambia The"
    }
  },
  {
    "id": 81,
    "iso2": "GE",
    "phone_code": "995",
    "translations": {
      "pt": "Geórgia",
      "de": "Georgien",
      "es": "Georgia",
      "fr": "Géorgie",
      "en": "Georgia"
    }
  },
  {
    "id": 82,
    "iso2": "DE",
    "phone_code": "49",
    "translations": {
      "pt": "Alemanha",
      "de": "Deutschland",
      "es": "Alemania",
      "fr": "Allemagne",
      "en": "Germany"
    }
  },
  {
    "id": 83,
    "iso2": "GH",
    "phone_code": "233",
    "translations": {
      "pt": "Gana",
      "de": "Ghana",
      "es": "Ghana",
      "fr": "Ghana",
      "en": "Ghana"
    }
  },
  {
    "id": 84,
    "iso2": "GI",
    "phone_code": "350",
    "translations": {
      "pt": "Gibraltar",
      "de": "Gibraltar",
      "es": "Gibraltar",
      "fr": "Gibraltar",
      "en": "Gibraltar"
    }
  },
  {
    "id": 85,
    "iso2": "GR",
    "phone_code": "30",
    "translations": {
      "pt": "Grécia",
      "de": "Griechenland",
      "es": "Grecia",
      "fr": "Grèce",
      "en": "Greece"
    }
  },
  {
    "id": 86,
    "iso2": "GL",
    "phone_code": "299",
    "translations": {
      "pt": "Gronelândia",
      "de": "Grönland",
      "es": "Groenlandia",
      "fr": "Groenland",
      "en": "Greenland"
    }
  },
  {
    "id": 87,
    "iso2": "GD",
    "phone_code": "1",
    "translations": {
      "pt": "Granada",
      "de": "Grenada",
      "es": "Grenada",
      "fr": "Grenade",
      "en": "Grenada"
    }
  },
  {
    "id": 88,
    "iso2": "GP",
    "phone_code": "590",
    "translations": {
      "pt": "Guadalupe",
      "de": "Guadeloupe",
      "es": "Guadalupe",
      "fr": "Guadeloupe",
      "en": "Guadeloupe"
    }
  },
  {
    "id": 89,
    "iso2": "GU",
    "phone_code": "1",
    "translations": {
      "pt": "Guame",
      "de": "Guam",
      "es": "Guam",
      "fr": "Guam",
      "en": "Guam"
    }
  },
  {
    "id": 90,
    "iso2": "GT",
    "phone_code": "502",
    "translations": {
      "pt": "Guatemala",
      "de": "Guatemala",
      "es": "Guatemala",
      "fr": "Guatemala",
      "en": "Guatemala"
    }
  },
  {
    "id": 91,
    "iso2": "GG",
    "phone_code": "44",
    "translations": {
      "pt": "Guernsey",
      "de": "Guernsey",
      "es": "Guernsey",
      "fr": "Guernesey",
      "en": "Guernsey and Alderney"
    }
  },
  {
    "id": 92,
    "iso2": "GN",
    "phone_code": "224",
    "translations": {
      "pt": "Guiné",
      "de": "Guinea",
      "es": "Guinea",
      "fr": "Guinée",
      "en": "Guinea"
    }
  },
  {
    "id": 93,
    "iso2": "GW",
    "phone_code": "245",
    "translations": {
      "pt": "Guiné-Bissau",
      "de": "Guinea-Bissau",
      "es": "Guinea-Bisáu",
      "fr": "Guinée-Bissau",
      "en": "Guinea-Bissau"
    }
  },
  {
    "id": 94,
    "iso2": "GY",
    "phone_code": "592",
    "translations": {
      "pt": "Guiana",
      "de": "Guyana",
      "es": "Guyana",
      "fr": "Guyane",
      "en": "Guyana"
    }
  },
  {
    "id": 95,
    "iso2": "HT",
    "phone_code": "509",
    "translations": {
      "pt": "Haiti",
      "de": "Haiti",
      "es": "Haiti",
      "fr": "Haïti",
      "en": "Haiti"
    }
  },
  {
    "id": 96,
    "iso2": "HM",
    "phone_code": "672",
    "translations": {
      "pt": "Ilha Heard e Ilhas McDonald",
      "de": "Heard und die McDonaldinseln",
      "es": "Islas Heard y McDonald",
      "fr": "Îles Heard-et-MacDonald",
      "en": "Heard Island and McDonald Islands"
    }
  },
  {
    "id": 97,
    "iso2": "HN",
    "phone_code": "504",
    "translations": {
      "pt": "Honduras",
      "de": "Honduras",
      "es": "Honduras",
      "fr": "Honduras",
      "en": "Honduras"
    }
  },
  {
    "id": 98,
    "iso2": "HK",
    "phone_code": "852",
    "translations": {
      "pt": "Hong Kong",
      "de": "Hong Kong",
      "es": "Hong Kong",
      "fr": "Hong Kong",
      "en": "Hong Kong S.A.R."
    }
  },
  {
    "id": 99,
    "iso2": "HU",
    "phone_code": "36",
    "translations": {
      "pt": "Hungria",
      "de": "Ungarn",
      "es": "Hungría",
      "fr": "Hongrie",
      "en": "Hungary"
    }
  },
  {
    "id": 100,
    "iso2": "IS",
    "phone_code": "354",
    "translations": {
      "pt": "Islândia",
      "de": "Island",
      "es": "Islandia",
      "fr": "Islande",
      "en": "Iceland"
    }
  },
  {
    "id": 101,
    "iso2": "IN",
    "phone_code": "91",
    "translations": {
      "pt": "Índia",
      "de": "Indien",
      "es": "India",
      "fr": "Inde",
      "en": "India"
    }
  },
  {
    "id": 102,
    "iso2": "ID",
    "phone_code": "62",
    "translations": {
      "pt": "Indonésia",
      "de": "Indonesien",
      "es": "Indonesia",
      "fr": "Indonésie",
      "en": "Indonesia"
    }
  },
  {
    "id": 103,
    "iso2": "IR",
    "phone_code": "98",
    "translations": {
      "pt": "Irão",
      "de": "Iran",
      "es": "Iran",
      "fr": "Iran",
      "en": "Iran"
    }
  },
  {
    "id": 104,
    "iso2": "IQ",
    "phone_code": "964",
    "translations": {
      "pt": "Iraque",
      "de": "Irak",
      "es": "Irak",
      "fr": "Irak",
      "en": "Iraq"
    }
  },
  {
    "id": 105,
    "iso2": "IE",
    "phone_code": "353",
    "translations": {
      "pt": "Irlanda",
      "de": "Irland",
      "es": "Irlanda",
      "fr": "Irlande",
      "en": "Ireland"
    }
  },
  {
    "id": 106,
    "iso2": "IL",
    "phone_code": "972",
    "translations": {
      "pt": "Israel",
      "de": "Israel",
      "es": "Israel",
      "fr": "Israël",
      "en": "Israel"
    }
  },
  {
    "id": 107,
    "iso2": "IT",
    "phone_code": "39",
    "translations": {
      "pt": "Itália",
      "de": "Italien",
      "es": "Italia",
      "fr": "Italie",
      "en": "Italy"
    }
  },
  {
    "id": 108,
    "iso2": "JM",
    "phone_code": "1",
    "translations": {
      "pt": "Jamaica",
      "de": "Jamaika",
      "es": "Jamaica",
      "fr": "Jamaïque",
      "en": "Jamaica"
    }
  },
  {
    "id": 109,
    "iso2": "JP",
    "phone_code": "81",
    "translations": {
      "pt": "Japão",
      "de": "Japan",
      "es": "Japón",
      "fr": "Japon",
      "en": "Japan"
    }
  },
  {
    "id": 110,
    "iso2": "JE",
    "phone_code": "44",
    "translations": {
      "pt": "Jersey",
      "de": "Jersey",
      "es": "Jersey",
      "fr": "Jersey",
      "en": "Jersey"
    }
  },
  {
    "id": 111,
    "iso2": "JO",
    "phone_code": "962",
    "translations": {
      "pt": "Jordânia",
      "de": "Jordanien",
      "es": "Jordania",
      "fr": "Jordanie",
      "en": "Jordan"
    }
  },
  {
    "id": 112,
    "iso2": "KZ",
    "phone_code": "7",
    "translations": {
      "pt": "Cazaquistão",
      "de": "Kasachstan",
      "es": "Kazajistán",
      "fr": "Kazakhstan",
      "en": "Kazakhstan"
    }
  },
  {
    "id": 113,
    "iso2": "KE",
    "phone_code": "254",
    "translations": {
      "pt": "Quénia",
      "de": "Kenia",
      "es": "Kenia",
      "fr": "Kenya",
      "en": "Kenya"
    }
  },
  {
    "id": 114,
    "iso2": "KI",
    "phone_code": "686",
    "translations": {
      "pt": "Quiribáti",
      "de": "Kiribati",
      "es": "Kiribati",
      "fr": "Kiribati",
      "en": "Kiribati"
    }
  },
  {
    "id": 248,
    "iso2": "XK",
    "phone_code": "383",
    "translations": {
      "en": "Kosovo"
    }
  },
  {
    "id": 117,
    "iso2": "KW",
    "phone_code": "965",
    "translations": {
      "pt": "Kuwait",
      "de": "Kuwait",
      "es": "Kuwait",
      "fr": "Koweït",
      "en": "Kuwait"
    }
  },
  {
    "id": 118,
    "iso2": "KG",
    "phone_code": "996",
    "translations": {
      "pt": "Quirguizistão",
      "de": "Kirgisistan",
      "es": "Kirguizistán",
      "fr": "Kirghizistan",
      "en": "Kyrgyzstan"
    }
  },
  {
    "id": 119,
    "iso2": "LA",
    "phone_code": "856",
    "translations": {
      "pt": "Laos",
      "de": "Laos",
      "es": "Laos",
      "fr": "Laos",
      "en": "Laos"
    }
  },
  {
    "id": 120,
    "iso2": "LV",
    "phone_code": "371",
    "translations": {
      "pt": "Letónia",
      "de": "Lettland",
      "es": "Letonia",
      "fr": "Lettonie",
      "en": "Latvia"
    }
  },
  {
    "id": 121,
    "iso2": "LB",
    "phone_code": "961",
    "translations": {
      "pt": "Líbano",
      "de": "Libanon",
      "es": "Líbano",
      "fr": "Liban",
      "en": "Lebanon"
    }
  },
  {
    "id": 122,
    "iso2": "LS",
    "phone_code": "266",
    "translations": {
      "pt": "Lesoto",
      "de": "Lesotho",
      "es": "Lesotho",
      "fr": "Lesotho",
      "en": "Lesotho"
    }
  },
  {
    "id": 123,
    "iso2": "LR",
    "phone_code": "231",
    "translations": {
      "pt": "Libéria",
      "de": "Liberia",
      "es": "Liberia",
      "fr": "Liberia",
      "en": "Liberia"
    }
  },
  {
    "id": 124,
    "iso2": "LY",
    "phone_code": "218",
    "translations": {
      "pt": "Líbia",
      "de": "Libyen",
      "es": "Libia",
      "fr": "Libye",
      "en": "Libya"
    }
  },
  {
    "id": 125,
    "iso2": "LI",
    "phone_code": "423",
    "translations": {
      "pt": "Listenstaine",
      "de": "Liechtenstein",
      "es": "Liechtenstein",
      "fr": "Liechtenstein",
      "en": "Liechtenstein"
    }
  },
  {
    "id": 126,
    "iso2": "LT",
    "phone_code": "370",
    "translations": {
      "pt": "Lituânia",
      "de": "Litauen",
      "es": "Lituania",
      "fr": "Lituanie",
      "en": "Lithuania"
    }
  },
  {
    "id": 127,
    "iso2": "LU",
    "phone_code": "352",
    "translations": {
      "pt": "Luxemburgo",
      "de": "Luxemburg",
      "es": "Luxemburgo",
      "fr": "Luxembourg",
      "en": "Luxembourg"
    }
  },
  {
    "id": 128,
    "iso2": "MO",
    "phone_code": "853",
    "translations": {
      "pt": "Macau",
      "de": "Macao",
      "es": "Macao",
      "fr": "Macao",
      "en": "Macau S.A.R."
    }
  },
  {
    "id": 129,
    "iso2": "MK",
    "phone_code": "389",
    "translations": {
      "pt": "Macedónia",
      "de": "Mazedonien",
      "es": "Macedonia",
      "fr": "Macédoine",
      "en": "Macedonia"
    }
  },
  {
    "id": 130,
    "iso2": "MG",
    "phone_code": "261",
    "translations": {
      "pt": "Madagáscar",
      "de": "Madagaskar",
      "es": "Madagascar",
      "fr": "Madagascar",
      "en": "Madagascar"
    }
  },
  {
    "id": 131,
    "iso2": "MW",
    "phone_code": "265",
    "translations": {
      "pt": "Malávi",
      "de": "Malawi",
      "es": "Malawi",
      "fr": "Malawi",
      "en": "Malawi"
    }
  },
  {
    "id": 132,
    "iso2": "MY",
    "phone_code": "60",
    "translations": {
      "pt": "Malásia",
      "de": "Malaysia",
      "es": "Malasia",
      "fr": "Malaisie",
      "en": "Malaysia"
    }
  },
  {
    "id": 133,
    "iso2": "MV",
    "phone_code": "960",
    "translations": {
      "pt": "Maldivas",
      "de": "Malediven",
      "es": "Maldivas",
      "fr": "Maldives",
      "en": "Maldives"
    }
  },
  {
    "id": 134,
    "iso2": "ML",
    "phone_code": "223",
    "translations": {
      "pt": "Mali",
      "de": "Mali",
      "es": "Mali",
      "fr": "Mali",
      "en": "Mali"
    }
  },
  {
    "id": 135,
    "iso2": "MT",
    "phone_code": "356",
    "translations": {
      "pt": "Malta",
      "de": "Malta",
      "es": "Malta",
      "fr": "Malte",
      "en": "Malta"
    }
  },
  {
    "id": 136,
    "iso2": "IM",
    "phone_code": "44",
    "translations": {
      "pt": "Ilha de Man",
      "de": "Insel Man",
      "es": "Isla de Man",
      "fr": "Île de Man",
      "en": "Man (Isle of)"
    }
  },
  {
    "id": 137,
    "iso2": "MH",
    "phone_code": "692",
    "translations": {
      "pt": "Ilhas Marshall",
      "de": "Marshallinseln",
      "es": "Islas Marshall",
      "fr": "Îles Marshall",
      "en": "Marshall Islands"
    }
  },
  {
    "id": 138,
    "iso2": "MQ",
    "phone_code": "596",
    "translations": {
      "pt": "Martinica",
      "de": "Martinique",
      "es": "Martinica",
      "fr": "Martinique",
      "en": "Martinique"
    }
  },
  {
    "id": 139,
    "iso2": "MR",
    "phone_code": "222",
    "translations": {
      "pt": "Mauritânia",
      "de": "Mauretanien",
      "es": "Mauritania",
      "fr": "Mauritanie",
      "en": "Mauritania"
    }
  },
  {
    "id": 140,
    "iso2": "MU",
    "phone_code": "230",
    "translations": {
      "pt": "Maurícia",
      "de": "Mauritius",
      "es": "Mauricio",
      "fr": "Île Maurice",
      "en": "Mauritius"
    }
  },
  {
    "id": 141,
    "iso2": "YT",
    "phone_code": "262",
    "translations": {
      "pt": "Mayotte",
      "de": "Mayotte",
      "es": "Mayotte",
      "fr": "Mayotte",
      "en": "Mayotte"
    }
  },
  {
    "id": 142,
    "iso2": "MX",
    "phone_code": "52",
    "translations": {
      "pt": "México",
      "de": "Mexiko",
      "es": "México",
      "fr": "Mexique",
      "en": "Mexico"
    }
  },
  {
    "id": 143,
    "iso2": "FM",
    "phone_code": "691",
    "translations": {
      "pt": "Micronésia",
      "de": "Mikronesien",
      "es": "Micronesia",
      "fr": "Micronésie",
      "en": "Micronesia"
    }
  },
  {
    "id": 144,
    "iso2": "MD",
    "phone_code": "373",
    "translations": {
      "pt": "Moldávia",
      "de": "Moldawie",
      "es": "Moldavia",
      "fr": "Moldavie",
      "en": "Moldova"
    }
  },
  {
    "id": 145,
    "iso2": "MC",
    "phone_code": "377",
    "translations": {
      "pt": "Mónaco",
      "de": "Monaco",
      "es": "Mónaco",
      "fr": "Monaco",
      "en": "Monaco"
    }
  },
  {
    "id": 146,
    "iso2": "MN",
    "phone_code": "976",
    "translations": {
      "pt": "Mongólia",
      "de": "Mongolei",
      "es": "Mongolia",
      "fr": "Mongolie",
      "en": "Mongolia"
    }
  },
  {
    "id": 147,
    "iso2": "ME",
    "phone_code": "382",
    "translations": {
      "pt": "Montenegro",
      "de": "Montenegro",
      "es": "Montenegro",
      "fr": "Monténégro",
      "en": "Montenegro"
    }
  },
  {
    "id": 148,
    "iso2": "MS",
    "phone_code": "1",
    "translations": {
      "pt": "Monserrate",
      "de": "Montserrat",
      "es": "Montserrat",
      "fr": "Montserrat",
      "en": "Montserrat"
    }
  },
  {
    "id": 149,
    "iso2": "MA",
    "phone_code": "212",
    "translations": {
      "pt": "Marrocos",
      "de": "Marokko",
      "es": "Marruecos",
      "fr": "Maroc",
      "en": "Morocco"
    }
  },
  {
    "id": 150,
    "iso2": "MZ",
    "phone_code": "258",
    "translations": {
      "pt": "Moçambique",
      "de": "Mosambik",
      "es": "Mozambique",
      "fr": "Mozambique",
      "en": "Mozambique"
    }
  },
  {
    "id": 151,
    "iso2": "MM",
    "phone_code": "95",
    "translations": {
      "pt": "Myanmar",
      "de": "Myanmar",
      "es": "Myanmar",
      "fr": "Myanmar",
      "en": "Myanmar"
    }
  },
  {
    "id": 152,
    "iso2": "NA",
    "phone_code": "264",
    "translations": {
      "pt": "Namíbia",
      "de": "Namibia",
      "es": "Namibia",
      "fr": "Namibie",
      "en": "Namibia"
    }
  },
  {
    "id": 153,
    "iso2": "NR",
    "phone_code": "674",
    "translations": {
      "pt": "Nauru",
      "de": "Nauru",
      "es": "Nauru",
      "fr": "Nauru",
      "en": "Nauru"
    }
  },
  {
    "id": 154,
    "iso2": "NP",
    "phone_code": "977",
    "translations": {
      "pt": "Nepal",
      "de": "Népal",
      "es": "Nepal",
      "fr": "Népal",
      "en": "Nepal"
    }
  },
  {
    "id": 156,
    "iso2": "NL",
    "phone_code": "31",
    "translations": {
      "pt": "Países Baixos",
      "de": "Niederlande",
      "es": "Países Bajos",
      "fr": "Pays-Bas",
      "en": "Netherlands"
    }
  },
  {
    "id": 157,
    "iso2": "NC",
    "phone_code": "687",
    "translations": {
      "pt": "Nova Caledónia",
      "de": "Neukaledonien",
      "es": "Nueva Caledonia",
      "fr": "Nouvelle-Calédonie",
      "en": "New Caledonia"
    }
  },
  {
    "id": 158,
    "iso2": "NZ",
    "phone_code": "64",
    "translations": {
      "pt": "Nova Zelândia",
      "de": "Neuseeland",
      "es": "Nueva Zelanda",
      "fr": "Nouvelle-Zélande",
      "en": "New Zealand"
    }
  },
  {
    "id": 159,
    "iso2": "NI",
    "phone_code": "505",
    "translations": {
      "pt": "Nicarágua",
      "de": "Nicaragua",
      "es": "Nicaragua",
      "fr": "Nicaragua",
      "en": "Nicaragua"
    }
  },
  {
    "id": 160,
    "iso2": "NE",
    "phone_code": "227",
    "translations": {
      "pt": "Níger",
      "de": "Niger",
      "es": "Níger",
      "fr": "Niger",
      "en": "Niger"
    }
  },
  {
    "id": 161,
    "iso2": "NG",
    "phone_code": "234",
    "translations": {
      "pt": "Nigéria",
      "de": "Nigeria",
      "es": "Nigeria",
      "fr": "Nigéria",
      "en": "Nigeria"
    }
  },
  {
    "id": 162,
    "iso2": "NU",
    "phone_code": "683",
    "translations": {
      "pt": "Niue",
      "de": "Niue",
      "es": "Niue",
      "fr": "Niue",
      "en": "Niue"
    }
  },
  {
    "id": 163,
    "iso2": "NF",
    "phone_code": "672",
    "translations": {
      "pt": "Ilha Norfolk",
      "de": "Norfolkinsel",
      "es": "Isla de Norfolk",
      "fr": "Île de Norfolk",
      "en": "Norfolk Island"
    }
  },
  {
    "id": 115,
    "iso2": "KP",
    "phone_code": "850",
    "translations": {
      "pt": "Coreia do Norte",
      "de": "Nordkorea",
      "es": "Corea del Norte",
      "fr": "Corée du Nord",
      "en": "North Korea"
    }
  },
  {
    "id": 164,
    "iso2": "MP",
    "phone_code": "1",
    "translations": {
      "pt": "Ilhas Marianas",
      "de": "Nördliche Marianen",
      "es": "Islas Marianas del Norte",
      "fr": "Îles Mariannes du Nord",
      "en": "Northern Mariana Islands"
    }
  },
  {
    "id": 165,
    "iso2": "NO",
    "phone_code": "47",
    "translations": {
      "pt": "Noruega",
      "de": "Norwegen",
      "es": "Noruega",
      "fr": "Norvège",
      "en": "Norway"
    }
  },
  {
    "id": 166,
    "iso2": "OM",
    "phone_code": "968",
    "translations": {
      "pt": "Omã",
      "de": "Oman",
      "es": "Omán",
      "fr": "Oman",
      "en": "Oman"
    }
  },
  {
    "id": 167,
    "iso2": "PK",
    "phone_code": "92",
    "translations": {
      "pt": "Paquistão",
      "de": "Pakistan",
      "es": "Pakistán",
      "fr": "Pakistan",
      "en": "Pakistan"
    }
  },
  {
    "id": 168,
    "iso2": "PW",
    "phone_code": "680",
    "translations": {
      "pt": "Palau",
      "de": "Palau",
      "es": "Palau",
      "fr": "Palaos",
      "en": "Palau"
    }
  },
  {
    "id": 169,
    "iso2": "PS",
    "phone_code": "970",
    "translations": {
      "pt": "Palestina",
      "de": "Palästina",
      "es": "Palestina",
      "fr": "Palestine",
      "en": "Palestinian Territory Occupied"
    }
  },
  {
    "id": 170,
    "iso2": "PA",
    "phone_code": "507",
    "translations": {
      "pt": "Panamá",
      "de": "Panama",
      "es": "Panamá",
      "fr": "Panama",
      "en": "Panama"
    }
  },
  {
    "id": 171,
    "iso2": "PG",
    "phone_code": "675",
    "translations": {
      "pt": "Papua Nova Guiné",
      "de": "Papua-Neuguinea",
      "es": "Papúa Nueva Guinea",
      "fr": "Papouasie-Nouvelle-Guinée",
      "en": "Papua new Guinea"
    }
  },
  {
    "id": 172,
    "iso2": "PY",
    "phone_code": "595",
    "translations": {
      "pt": "Paraguai",
      "de": "Paraguay",
      "es": "Paraguay",
      "fr": "Paraguay",
      "en": "Paraguay"
    }
  },
  {
    "id": 173,
    "iso2": "PE",
    "phone_code": "51",
    "translations": {
      "pt": "Peru",
      "de": "Peru",
      "es": "Perú",
      "fr": "Pérou",
      "en": "Peru"
    }
  },
  {
    "id": 174,
    "iso2": "PH",
    "phone_code": "63",
    "translations": {
      "pt": "Filipinas",
      "de": "Philippinen",
      "es": "Filipinas",
      "fr": "Philippines",
      "en": "Philippines"
    }
  },
  {
    "id": 175,
    "iso2": "PN",
    "phone_code": "870",
    "translations": {
      "pt": "Ilhas Picárnia",
      "de": "Pitcairn",
      "es": "Islas Pitcairn",
      "fr": "Îles Pitcairn",
      "en": "Pitcairn Island"
    }
  },
  {
    "id": 176,
    "iso2": "PL",
    "phone_code": "48",
    "translations": {
      "pt": "Polónia",
      "de": "Polen",
      "es": "Polonia",
      "fr": "Pologne",
      "en": "Poland"
    }
  },
  {
    "id": 177,
    "iso2": "PT",
    "phone_code": "351",
    "translations": {
      "pt": "Portugal",
      "de": "Portugal",
      "es": "Portugal",
      "fr": "Portugal",
      "en": "Portugal"
    }
  },
  {
    "id": 178,
    "iso2": "PR",
    "phone_code": "1",
    "translations": {
      "pt": "Porto Rico",
      "de": "Puerto Rico",
      "es": "Puerto Rico",
      "fr": "Porto Rico",
      "en": "Puerto Rico"
    }
  },
  {
    "id": 179,
    "iso2": "QA",
    "phone_code": "974",
    "translations": {
      "pt": "Catar",
      "de": "Katar",
      "es": "Catar",
      "fr": "Qatar",
      "en": "Qatar"
    }
  },
  {
    "id": 180,
    "iso2": "RE",
    "phone_code": "262",
    "translations": {
      "pt": "Reunião",
      "de": "Réunion",
      "es": "Reunión",
      "fr": "Réunion",
      "en": "Reunion"
    }
  },
  {
    "id": 181,
    "iso2": "RO",
    "phone_code": "40",
    "translations": {
      "pt": "Roménia",
      "de": "Rumänien",
      "es": "Rumania",
      "fr": "Roumanie",
      "en": "Romania"
    }
  },
  {
    "id": 182,
    "iso2": "RU",
    "phone_code": "7",
    "translations": {
      "pt": "Rússia",
      "de": "Russland",
      "es": "Rusia",
      "fr": "Russie",
      "en": "Russia"
    }
  },
  {
    "id": 183,
    "iso2": "RW",
    "phone_code": "250",
    "translations": {
      "pt": "Ruanda",
      "de": "Ruanda",
      "es": "Ruanda",
      "fr": "Rwanda",
      "en": "Rwanda"
    }
  },
  {
    "id": 184,
    "iso2": "SH",
    "phone_code": "290",
    "translations": {
      "pt": "Santa Helena",
      "de": "Sankt Helena",
      "es": "Santa Helena",
      "fr": "Sainte-Hélène",
      "en": "Saint Helena"
    }
  },
  {
    "id": 185,
    "iso2": "KN",
    "phone_code": "1",
    "translations": {
      "pt": "São Cristóvão e Neves",
      "de": "St. Kitts und Nevis",
      "es": "San Cristóbal y Nieves",
      "fr": "Saint-Christophe-et-Niévès",
      "en": "Saint Kitts And Nevis"
    }
  },
  {
    "id": 186,
    "iso2": "LC",
    "phone_code": "1",
    "translations": {
      "pt": "Santa Lúcia",
      "de": "Saint Lucia",
      "es": "Santa Lucía",
      "fr": "Saint-Lucie",
      "en": "Saint Lucia"
    }
  },
  {
    "id": 187,
    "iso2": "PM",
    "phone_code": "508",
    "translations": {
      "pt": "São Pedro e Miquelon",
      "de": "Saint-Pierre und Miquelon",
      "es": "San Pedro y Miquelón",
      "fr": "Saint-Pierre-et-Miquelon",
      "en": "Saint Pierre and Miquelon"
    }
  },
  {
    "id": 188,
    "iso2": "VC",
    "phone_code": "1",
    "translations": {
      "pt": "São Vicente e Granadinas",
      "de": "Saint Vincent und die Grenadinen",
      "es": "San Vicente y Granadinas",
      "fr": "Saint-Vincent-et-les-Grenadines",
      "en": "Saint Vincent And The Grenadines"
    }
  },
  {
    "id": 189,
    "iso2": "BL",
    "phone_code": "590",
    "translations": {
      "pt": "São Bartolomeu",
      "de": "Saint-Barthélemy",
      "es": "San Bartolomé",
      "fr": "Saint-Barthélemy",
      "en": "Saint-Barthelemy"
    }
  },
  {
    "id": 190,
    "iso2": "MF",
    "phone_code": "590",
    "translations": {
      "pt": "Ilha São Martinho",
      "de": "Saint Martin",
      "es": "Saint Martin",
      "fr": "Saint-Martin",
      "en": "Saint-Martin (French part)"
    }
  },
  {
    "id": 191,
    "iso2": "WS",
    "phone_code": "685",
    "translations": {
      "pt": "Samoa",
      "de": "Samoa",
      "es": "Samoa",
      "fr": "Samoa",
      "en": "Samoa"
    }
  },
  {
    "id": 192,
    "iso2": "SM",
    "phone_code": "378",
    "translations": {
      "pt": "São Marinho",
      "de": "San Marino",
      "es": "San Marino",
      "fr": "Saint-Marin",
      "en": "San Marino"
    }
  },
  {
    "id": 193,
    "iso2": "ST",
    "phone_code": "239",
    "translations": {
      "pt": "São Tomé e Príncipe",
      "de": "São Tomé und Príncipe",
      "es": "Santo Tomé y Príncipe",
      "fr": "Sao Tomé-et-Principe",
      "en": "Sao Tome and Principe"
    }
  },
  {
    "id": 194,
    "iso2": "SA",
    "phone_code": "966",
    "translations": {
      "pt": "Arábia Saudita",
      "de": "Saudi-Arabien",
      "es": "Arabia Saudí",
      "fr": "Arabie Saoudite",
      "en": "Saudi Arabia"
    }
  },
  {
    "id": 195,
    "iso2": "SN",
    "phone_code": "221",
    "translations": {
      "pt": "Senegal",
      "de": "Senegal",
      "es": "Senegal",
      "fr": "Sénégal",
      "en": "Senegal"
    }
  },
  {
    "id": 196,
    "iso2": "RS",
    "phone_code": "381",
    "translations": {
      "pt": "Sérvia",
      "de": "Serbien",
      "es": "Serbia",
      "fr": "Serbie",
      "en": "Serbia"
    }
  },
  {
    "id": 197,
    "iso2": "SC",
    "phone_code": "248",
    "translations": {
      "pt": "Seicheles",
      "de": "Seychellen",
      "es": "Seychelles",
      "fr": "Seychelles",
      "en": "Seychelles"
    }
  },
  {
    "id": 198,
    "iso2": "SL",
    "phone_code": "232",
    "translations": {
      "pt": "Serra Leoa",
      "de": "Sierra Leone",
      "es": "Sierra Leone",
      "fr": "Sierra Leone",
      "en": "Sierra Leone"
    }
  },
  {
    "id": 199,
    "iso2": "SG",
    "phone_code": "65",
    "translations": {
      "pt": "Singapura",
      "de": "Singapur",
      "es": "Singapur",
      "fr": "Singapour",
      "en": "Singapore"
    }
  },
  {
    "id": 250,
    "iso2": "SX",
    "phone_code": "1721",
    "translations": {
      "pt": "São Martinho",
      "de": "Sint Maarten (niederl. Teil)",
      "fr": "Saint Martin (partie néerlandaise)",
      "en": "Sint Maarten (Dutch part)"
    }
  },
  {
    "id": 200,
    "iso2": "SK",
    "phone_code": "421",
    "translations": {
      "pt": "Eslováquia",
      "de": "Slowakei",
      "es": "República Eslovaca",
      "fr": "Slovaquie",
      "en": "Slovakia"
    }
  },
  {
    "id": 201,
    "iso2": "SI",
    "phone_code": "386",
    "translations": {
      "pt": "Eslovénia",
      "de": "Slowenien",
      "es": "Eslovenia",
      "fr": "Slovénie",
      "en": "Slovenia"
    }
  },
  {
    "id": 202,
    "iso2": "SB",
    "phone_code": "677",
    "translations": {
      "pt": "Ilhas Salomão",
      "de": "Salomonen",
      "es": "Islas Salomón",
      "fr": "Îles Salomon",
      "en": "Solomon Islands"
    }
  },
  {
    "id": 203,
    "iso2": "SO",
    "phone_code": "252",
    "translations": {
      "pt": "Somália",
      "de": "Somalia",
      "es": "Somalia",
      "fr": "Somalie",
      "en": "Somalia"
    }
  },
  {
    "id": 204,
    "iso2": "ZA",
    "phone_code": "27",
    "translations": {
      "pt": "República Sul-Africana",
      "de": "Republik Südafrika",
      "es": "República de Sudáfrica",
      "fr": "Afrique du Sud",
      "en": "South Africa"
    }
  },
  {
    "id": 205,
    "iso2": "GS",
    "phone_code": "500",
    "translations": {
      "pt": "Ilhas Geórgia do Sul e Sanduíche do Sul",
      "de": "Südgeorgien und die Südlichen Sandwichinseln",
      "es": "Islas Georgias del Sur y Sandwich del Sur",
      "fr": "Géorgie du Sud-et-les Îles Sandwich du Sud",
      "en": "South Georgia"
    }
  },
  {
    "id": 116,
    "iso2": "KR",
    "phone_code": "82",
    "translations": {
      "pt": "Coreia do Sul",
      "de": "Südkorea",
      "es": "Corea del Sur",
      "fr": "Corée du Sud",
      "en": "South Korea"
    }
  },
  {
    "id": 206,
    "iso2": "SS",
    "phone_code": "211",
    "translations": {
      "pt": "Sudão do Sul",
      "de": "Südsudan",
      "es": "Sudán del Sur",
      "fr": "Soudan du Sud",
      "en": "South Sudan"
    }
  },
  {
    "id": 207,
    "iso2": "ES",
    "phone_code": "34",
    "translations": {
      "pt": "Espanha",
      "de": "Spanien",
      "es": "España",
      "fr": "Espagne",
      "en": "Spain"
    }
  },
  {
    "id": 208,
    "iso2": "LK",
    "phone_code": "94",
    "translations": {
      "pt": "Sri Lanka",
      "de": "Sri Lanka",
      "es": "Sri Lanka",
      "fr": "Sri Lanka",
      "en": "Sri Lanka"
    }
  },
  {
    "id": 209,
    "iso2": "SD",
    "phone_code": "249",
    "translations": {
      "pt": "Sudão",
      "de": "Sudan",
      "es": "Sudán",
      "fr": "Soudan",
      "en": "Sudan"
    }
  },
  {
    "id": 210,
    "iso2": "SR",
    "phone_code": "597",
    "translations": {
      "pt": "Suriname",
      "de": "Suriname",
      "es": "Surinam",
      "fr": "Surinam",
      "en": "Suriname"
    }
  },
  {
    "id": 211,
    "iso2": "SJ",
    "phone_code": "47",
    "translations": {
      "pt": "Svalbard",
      "de": "Svalbard und Jan Mayen",
      "es": "Islas Svalbard y Jan Mayen",
      "fr": "Svalbard et Jan Mayen",
      "en": "Svalbard And Jan Mayen Islands"
    }
  },
  {
    "id": 212,
    "iso2": "SZ",
    "phone_code": "268",
    "translations": {
      "pt": "Suazilândia",
      "de": "Swasiland",
      "es": "Suazilandia",
      "fr": "Swaziland",
      "en": "Swaziland"
    }
  },
  {
    "id": 213,
    "iso2": "SE",
    "phone_code": "46",
    "translations": {
      "pt": "Suécia",
      "de": "Schweden",
      "es": "Suecia",
      "fr": "Suède",
      "en": "Sweden"
    }
  },
  {
    "id": 214,
    "iso2": "CH",
    "phone_code": "41",
    "translations": {
      "pt": "Suíça",
      "de": "Schweiz",
      "es": "Suiza",
      "fr": "Suisse",
      "en": "Switzerland"
    }
  },
  {
    "id": 215,
    "iso2": "SY",
    "phone_code": "963",
    "translations": {
      "pt": "Síria",
      "de": "Syrien",
      "es": "Siria",
      "fr": "Syrie",
      "en": "Syria"
    }
  },
  {
    "id": 216,
    "iso2": "TW",
    "phone_code": "886",
    "translations": {
      "pt": "Taiwan",
      "de": "Taiwan",
      "es": "Taiwán",
      "fr": "Taïwan",
      "en": "Taiwan"
    }
  },
  {
    "id": 217,
    "iso2": "TJ",
    "phone_code": "992",
    "translations": {
      "pt": "Tajiquistão",
      "de": "Tadschikistan",
      "es": "Tayikistán",
      "fr": "Tadjikistan",
      "en": "Tajikistan"
    }
  },
  {
    "id": 218,
    "iso2": "TZ",
    "phone_code": "255",
    "translations": {
      "pt": "Tanzânia",
      "de": "Tansania",
      "es": "Tanzania",
      "fr": "Tanzanie",
      "en": "Tanzania"
    }
  },
  {
    "id": 219,
    "iso2": "TH",
    "phone_code": "66",
    "translations": {
      "pt": "Tailândia",
      "de": "Thailand",
      "es": "Tailandia",
      "fr": "Thaïlande",
      "en": "Thailand"
    }
  },
  {
    "id": 17,
    "iso2": "BS",
    "phone_code": "1",
    "translations": {
      "pt": "Baamas",
      "de": "Bahamas",
      "es": "Bahamas",
      "fr": "Bahamas",
      "en": "The Bahamas"
    }
  },
  {
    "id": 220,
    "iso2": "TG",
    "phone_code": "228",
    "translations": {
      "pt": "Togo",
      "de": "Togo",
      "es": "Togo",
      "fr": "Togo",
      "en": "Togo"
    }
  },
  {
    "id": 221,
    "iso2": "TK",
    "phone_code": "690",
    "translations": {
      "pt": "Toquelau",
      "de": "Tokelau",
      "es": "Islas Tokelau",
      "fr": "Tokelau",
      "en": "Tokelau"
    }
  },
  {
    "id": 222,
    "iso2": "TO",
    "phone_code": "676",
    "translations": {
      "pt": "Tonga",
      "de": "Tonga",
      "es": "Tonga",
      "fr": "Tonga",
      "en": "Tonga"
    }
  },
  {
    "id": 223,
    "iso2": "TT",
    "phone_code": "1",
    "translations": {
      "pt": "Trindade e Tobago",
      "de": "Trinidad und Tobago",
      "es": "Trinidad y Tobago",
      "fr": "Trinité et Tobago",
      "en": "Trinidad And Tobago"
    }
  },
  {
    "id": 224,
    "iso2": "TN",
    "phone_code": "216",
    "translations": {
      "pt": "Tunísia",
      "de": "Tunesien",
      "es": "Túnez",
      "fr": "Tunisie",
      "en": "Tunisia"
    }
  },
  {
    "id": 225,
    "iso2": "TR",
    "phone_code": "90",
    "translations": {
      "pt": "Turquia",
      "de": "Türkei",
      "es": "Turquía",
      "fr": "Turquie",
      "en": "Turkey"
    }
  },
  {
    "id": 226,
    "iso2": "TM",
    "phone_code": "993",
    "translations": {
      "pt": "Turquemenistão",
      "de": "Turkmenistan",
      "es": "Turkmenistán",
      "fr": "Turkménistan",
      "en": "Turkmenistan"
    }
  },
  {
    "id": 227,
    "iso2": "TC",
    "phone_code": "1",
    "translations": {
      "pt": "Ilhas Turcas e Caicos",
      "de": "Turks- und Caicosinseln",
      "es": "Islas Turks y Caicos",
      "fr": "Îles Turques-et-Caïques",
      "en": "Turks And Caicos Islands"
    }
  },
  {
    "id": 228,
    "iso2": "TV",
    "phone_code": "688",
    "translations": {
      "pt": "Tuvalu",
      "de": "Tuvalu",
      "es": "Tuvalu",
      "fr": "Tuvalu",
      "en": "Tuvalu"
    }
  },
  {
    "id": 229,
    "iso2": "UG",
    "phone_code": "256",
    "translations": {
      "pt": "Uganda",
      "de": "Uganda",
      "es": "Uganda",
      "fr": "Uganda",
      "en": "Uganda"
    }
  },
  {
    "id": 230,
    "iso2": "UA",
    "phone_code": "380",
    "translations": {
      "pt": "Ucrânia",
      "de": "Ukraine",
      "es": "Ucrania",
      "fr": "Ukraine",
      "en": "Ukraine"
    }
  },
  {
    "id": 231,
    "iso2": "AE",
    "phone_code": "971",
    "translations": {
      "pt": "Emirados árabes Unidos",
      "de": "Vereinigte Arabische Emirate",
      "es": "Emiratos Árabes Unidos",
      "fr": "Émirats arabes unis",
      "en": "United Arab Emirates"
    }
  },
  {
    "id": 232,
    "iso2": "GB",
    "phone_code": "44",
    "translations": {
      "pt": "Reino Unido",
      "de": "Vereinigtes Königreich",
      "es": "Reino Unido",
      "fr": "Royaume-Uni",
      "en": "United Kingdom"
    }
  },
  {
    "id": 233,
    "iso2": "US",
    "phone_code": "1",
    "translations": {
      "pt": "Estados Unidos",
      "de": "Vereinigte Staaten von Amerika",
      "es": "Estados Unidos",
      "fr": "États-Unis",
      "en": "United States"
    }
  },
  {
    "id": 234,
    "iso2": "UM",
    "phone_code": "1",
    "translations": {
      "pt": "Ilhas Menores Distantes dos Estados Unidos",
      "de": "Kleinere Inselbesitzungen der Vereinigten Staaten",
      "es": "Islas Ultramarinas Menores de Estados Unidos",
      "fr": "Îles mineures éloignées des États-Unis",
      "en": "United States Minor Outlying Islands"
    }
  },
  {
    "id": 235,
    "iso2": "UY",
    "phone_code": "598",
    "translations": {
      "pt": "Uruguai",
      "de": "Uruguay",
      "es": "Uruguay",
      "fr": "Uruguay",
      "en": "Uruguay"
    }
  },
  {
    "id": 236,
    "iso2": "UZ",
    "phone_code": "998",
    "translations": {
      "pt": "Usbequistão",
      "de": "Usbekistan",
      "es": "Uzbekistán",
      "fr": "Ouzbékistan",
      "en": "Uzbekistan"
    }
  },
  {
    "id": 237,
    "iso2": "VU",
    "phone_code": "678",
    "translations": {
      "pt": "Vanuatu",
      "de": "Vanuatu",
      "es": "Vanuatu",
      "fr": "Vanuatu",
      "en": "Vanuatu"
    }
  },
  {
    "id": 238,
    "iso2": "VA",
    "phone_code": "379",
    "translations": {
      "pt": "Vaticano",
      "de": "Heiliger Stuhl",
      "es": "Santa Sede",
      "fr": "voir Saint",
      "en": "Vatican City State (Holy See)"
    }
  },
  {
    "id": 239,
    "iso2": "VE",
    "phone_code": "58",
    "translations": {
      "pt": "Venezuela",
      "de": "Venezuela",
      "es": "Venezuela",
      "fr": "Venezuela",
      "en": "Venezuela"
    }
  },
  {
    "id": 240,
    "iso2": "VN",
    "phone_code": "84",
    "translations": {
      "pt": "Vietname",
      "de": "Vietnam",
      "es": "Vietnam",
      "fr": "Viêt Nam",
      "en": "Vietnam"
    }
  },
  {
    "id": 241,
    "iso2": "VG",
    "phone_code": "1",
    "translations": {
      "pt": "Ilhas Virgens Britânicas",
      "de": "Britische Jungferninseln",
      "es": "Islas Vírgenes del Reino Unido",
      "fr": "Îles Vierges britanniques",
      "en": "Virgin Islands (British)"
    }
  },
  {
    "id": 242,
    "iso2": "VI",
    "phone_code": "1",
    "translations": {
      "pt": "Ilhas Virgens Americanas",
      "de": "Amerikanische Jungferninseln",
      "es": "Islas Vírgenes de los Estados Unidos",
      "fr": "Îles Vierges des États-Unis",
      "en": "Virgin Islands (US)"
    }
  },
  {
    "id": 243,
    "iso2": "WF",
    "phone_code": "681",
    "translations": {
      "pt": "Wallis e Futuna",
      "de": "Wallis und Futuna",
      "es": "Wallis y Futuna",
      "fr": "Wallis-et-Futuna",
      "en": "Wallis And Futuna Islands"
    }
  },
  {
    "id": 244,
    "iso2": "EH",
    "phone_code": "212",
    "translations": {
      "pt": "Saara Ocidental",
      "de": "Westsahara",
      "es": "Sahara Occidental",
      "fr": "Sahara Occidental",
      "en": "Western Sahara"
    }
  },
  {
    "id": 245,
    "iso2": "YE",
    "phone_code": "967",
    "translations": {
      "pt": "Iémen",
      "de": "Jemen",
      "es": "Yemen",
      "fr": "Yémen",
      "en": "Yemen"
    }
  },
  {
    "id": 246,
    "iso2": "ZM",
    "phone_code": "260",
    "translations": {
      "pt": "Zâmbia",
      "de": "Sambia",
      "es": "Zambia",
      "fr": "Zambie",
      "en": "Zambia"
    }
  },
  {
    "id": 247,
    "iso2": "ZW",
    "phone_code": "263",
    "translations": {
      "pt": "Zimbabué",
      "de": "Simbabwe",
      "es": "Zimbabue",
      "fr": "Zimbabwe",
      "en": "Zimbabwe"
    }
  }
]